     2.10           NAVIGATION                              RINEX VERSION / TYPE
fic2rin                                 06/21/2008 01:06:54 PGM / RUN BY / DATE
                                                            END OF HEADER
13 08  6 20 10  0  0.0  .260568223894D-03  .159161572810D-11  .000000000000D+00
     .230000000000D+02  .572500000000D+02  .383515974980D-08  .273698562061D+00
     .301003456116D-05  .384086242411D-02  .184960663319D-05  .515361968422D+04
     .468000000000D+06 -.670552253723D-07  .160176505466D+01  .204890966415D-07
     .995216451606D+00  .361937500000D+03  .148091916188D+01 -.799711882638D-08
    -.221437795202D-10  .100000000000D+01  .148400000000D+04  .000000000000D+00
     .240000000000D+01  .000000000000D+00 -.111758708954D-07  .230000000000D+02
     .460806000000D+06  .400000000000D+01
15 08  6 20 10  0  0.0 -.129640102386D-03 -.613908923697D-11  .000000000000D+00
     .110000000000D+02  .734062500000D+02  .468698094586D-08  .962176645742D+00
     .363774597645D-05  .637078424916D-03  .959262251854D-06  .515366966057D+04
     .468000000000D+06  .167638063431D-07  .154248571961D+01 -.372529029846D-07
     .957346056597D+00  .361687500000D+03 -.125262348102D+01 -.841427905993D-08
    -.175007289756D-10  .100000000000D+01  .148400000000D+04  .000000000000D+00
     .240000000000D+01  .000000000000D+00 -.977888703346D-08  .110000000000D+02
     .460806000000D+06  .400000000000D+01
16 08  6 20 10  0  0.0  .120467040688D-03 -.159161572810D-11  .000000000000D+00
     .910000000000D+02 -.622187500000D+02  .398659462910D-08  .187833689316D+01
    -.315345823765D-05  .478616496548D-02  .988878309727D-05  .515362112808D+04
     .468000000000D+06  .149011611938D-07 -.261599662226D+01  .633299350739D-07
     .966027891694D+00  .191562500000D+03 -.474797650782D+00 -.756638659894D-08
     .380015829185D-09  .100000000000D+01  .148400000000D+04  .000000000000D+00
     .340000000000D+01  .000000000000D+00 -.977888703346D-08  .910000000000D+02
     .460806000000D+06  .400000000000D+01
17 08  6 20 10  0  0.0  .386196188629D-04  .000000000000D+00  .000000000000D+00
     .230000000000D+02  .129062500000D+02  .493591988659D-08  .627497993719D+00
     .577419996262D-06  .361701205838D-02  .584684312344D-05  .515375874710D+04
     .468000000000D+06 -.372529029846D-08 -.157493845938D+01  .670552253723D-07
     .959094482158D+00  .268968750000D+03 -.276652369359D+01 -.807962226298D-08
     .408588447920D-09  .100000000000D+01  .148400000000D+04  .000000000000D+00
     .240000000000D+01  .000000000000D+00 -.102445483208D-07  .230000000000D+02
     .460806000000D+06  .400000000000D+01
18 08  6 20 10  0  0.0 -.165410339832D-03  .420641299570D-11  .000000000000D+00
     .220000000000D+02  .118562500000D+03  .458804825348D-08  .204344937917D+01
     .606477260590D-05  .944924459327D-02  .100992619991D-04  .515370200348D+04
     .468000000000D+06 -.290572643280D-06  .542648315023D+00 -.465661287308D-07
     .947766223867D+00  .179875000000D+03 -.250485409394D+01 -.793497338063D-08
    -.176793078427D-09  .100000000000D+01  .148400000000D+04  .000000000000D+00
     .240000000000D+01  .000000000000D+00 -.107102096081D-07  .220000000000D+02
     .460806000000D+06  .400000000000D+01
19 08  6 20 10  0  0.0  .322945415974D-04  .682121026330D-12  .000000000000D+00
     .290000000000D+02  .559375000000D+01  .496877839814D-08  .245815366877D+00
     .324100255966D-06  .477327161934D-02  .563263893127D-05  .515368777657D+04
     .468000000000D+06  .000000000000D+00 -.151787757230D+01 -.838190317154D-07
     .956867752606D+00  .266937500000D+03 -.591951324120D+00 -.817391190481D-08
     .393587823084D-09  .100000000000D+01  .148400000000D+04  .000000000000D+00
     .240000000000D+01  .000000000000D+00 -.144354999065D-07  .290000000000D+02
     .460806000000D+06  .400000000000D+01
20 08  6 20 10  0  0.0  .111720059067D-03 -.795807864051D-12  .000000000000D+00
     .980000000000D+02  .962500000000D+02  .459840582777D-08  .208267037087D+01
     .484846532345D-05  .365076609887D-02  .947341322899D-05  .515355137062D+04
     .468000000000D+06 -.130385160446D-07  .489059244149D+00 -.633299350739D-07
     .947305684090D+00  .186625000000D+03  .134867635607D+01 -.789104297933D-08
    -.206080012631D-09  .100000000000D+01  .148400000000D+04  .000000000000D+00
     .240000000000D+01  .000000000000D+00 -.651925802231D-08  .980000000000D+02
     .460806000000D+06  .400000000000D+01
21 08  6 20 10  0  0.0  .606672838330D-04 -.125055521494D-11  .000000000000D+00
     .470000000000D+02 -.987500000000D+01  .524200406480D-08 -.305777919927D+01
    -.556930899620D-06  .140659564640D-01  .813603401184D-05  .515370782089D+04
     .468000000000D+06 -.154599547386D-06 -.515084255418D+00 -.188127160072D-06
     .936133249982D+00  .213093750000D+03 -.271104937775D+01 -.796283168390D-08
    -.489663253583D-09  .100000000000D+01  .148400000000D+04  .000000000000D+00
     .240000000000D+01  .000000000000D+00 -.116415321827D-07  .470000000000D+02
     .460806000000D+06  .400000000000D+01
22 08  6 20 10  0  0.0  .211487989873D-03  .227373675443D-12  .000000000000D+00
     .720000000000D+02  .108968750000D+03  .473519723997D-08  .746968148096D+00
     .578723847866D-05  .486914941575D-02  .979751348495D-05  .515367475891D+04
     .468000000000D+06 -.670552253723D-07  .549088178424D+00  .633299350739D-07
     .945401080321D+00  .184625000000D+03 -.181820992582D+01 -.813748181592D-08
    -.180364655769D-09  .100000000000D+01  .148400000000D+04  .000000000000D+00
     .485000000000D+01  .000000000000D+00 -.181607902050D-07  .720000000000D+02
     .460806000000D+06  .400000000000D+01
24 08  6 20 10  0  0.0  .103259459138D-03  .295585778076D-11  .000000000000D+00
     .400000000000D+01 -.409375000000D+01  .489698969356D-08  .185778981668D+01
    -.232830643654D-06  .767736928537D-02  .795349478722D-05  .515366590309D+04
     .468000000000D+06  .128522515297D-06 -.488738414511D+00  .149011611938D-07
     .952814994078D+00  .221968750000D+03 -.728935817548D+00 -.790854370830D-08
    -.593596154234D-09  .100000000000D+01  .148400000000D+04  .000000000000D+00
     .240000000000D+01  .000000000000D+00 -.139698386192D-08  .400000000000D+01
     .460806000000D+06  .400000000000D+01
26 08  6 20 10  0  0.0  .277508050203D-03  .727595761418D-11  .000000000000D+00
     .460000000000D+02  .599687500000D+02  .394194991232D-08 -.106746512743D+01
     .334717333317D-05  .191823623609D-01  .797212123871D-06  .515361315536D+04
     .468000000000D+06  .309199094772D-06  .160036901974D+01  .324100255966D-06
     .993157296394D+00  .380656250000D+03  .941988876566D+00 -.814033907780D-08
    -.350014579512D-10  .100000000000D+01  .148400000000D+04  .000000000000D+00
     .240000000000D+01  .000000000000D+00 -.605359673500D-08  .460000000000D+02
     .460806000000D+06  .400000000000D+01
27 08  6 20 10  0  0.0  .196955166757D-03  .272848410532D-11  .000000000000D+00
     .190000000000D+02 -.110968750000D+03  .402088177158D-08  .238387304654D+01
    -.589154660702D-05  .210888392758D-01  .291131436825D-05  .515376694298D+04
     .468000000000D+06  .249594449997D-06  .254163386450D+01 -.152736902237D-06
     .969852252136D+00  .323656250000D+03 -.170455761524D+01 -.767460539241D-08
    -.304655547269D-09  .100000000000D+01  .148400000000D+04  .000000000000D+00
     .240000000000D+01  .000000000000D+00 -.419095158577D-08  .190000000000D+02
     .460806000000D+06  .400000000000D+01
28 08  6 20 10  0  0.0 -.202567316592D-04 -.341060513165D-12  .000000000000D+00
     .300000000000D+01 -.553750000000D+02  .412410035676D-08  .110956832961D+01
    -.289455056190D-05  .138099495089D-01  .105071812868D-04  .515371977615D+04
     .468000000000D+06 -.219792127609D-06 -.260737000647D+01 -.167638063431D-07
     .964174516390D+00  .180500000000D+03 -.209628389738D+01 -.785711299458D-08
     .320013329840D-09  .100000000000D+01  .148400000000D+04  .000000000000D+00
     .240000000000D+01  .000000000000D+00 -.102445483208D-07  .300000000000D+01
     .460806000000D+06  .400000000000D+01
29 08  6 20 10  0  0.0 -.424189493060D-04  .113686837722D-12  .000000000000D+00
     .630000000000D+02  .884375000000D+01  .485484508093D-08 -.296738998962D+01
     .225380063057D-06  .375619565602D-02  .566430389881D-05  .515364037132D+04
     .468000000000D+06  .931322574615D-07 -.156676318454D+01  .651925802231D-07
     .959210642242D+00  .265468750000D+03 -.140330751469D+01 -.798211820155D-08
     .461804950316D-09  .100000000000D+01  .148400000000D+04  .000000000000D+00
     .240000000000D+01  .000000000000D+00 -.884756445885D-08  .630000000000D+02
     .460806000000D+06  .400000000000D+01
30 08  6 20 10  0  0.0  .820634886622D-04  .181898940355D-11  .000000000000D+00
     .140000000000D+02 -.798125000000D+02  .430196490839D-08  .158251963441D+01
    -.415556132793D-05  .106888131704D-01  .104121863842D-04  .515373146057D+04
     .468000000000D+06 -.119209289551D-06 -.267457866179D+01 -.234693288803D-06
     .949213437521D+00  .172968750000D+03  .137499277038D+01 -.787925677410D-08
     .467162316328D-09  .100000000000D+01  .148400000000D+04  .000000000000D+00
     .240000000000D+01  .000000000000D+00 -.838190317154D-08  .140000000000D+02
     .460806000000D+06  .400000000000D+01
31 08  6 20 10  0  0.0 -.240337103605D-04 -.125055521494D-11  .000000000000D+00
     .710000000000D+02 -.115718750000D+03  .419981779641D-08 -.228153903032D+01
    -.596046447754D-05  .667117058765D-02  .363960862160D-05  .515376813507D+04
     .468000000000D+06  .171363353729D-06  .259821977133D+01  .135973095894D-06
     .968325120731D+00  .315343750000D+03 -.122253343003D+01 -.800104756146D-08
    -.317156067966D-09  .100000000000D+01  .148400000000D+04  .000000000000D+00
     .240000000000D+01  .000000000000D+00 -.130385160446D-07  .710000000000D+02
     .460806000000D+06  .400000000000D+01
